IRIDIUM 116             
1 43072U 17083C   24329.62480376  .00000207  00000+0  66806-4 0  9999
2 43072  86.4008 200.0271 0001887  80.5836 279.5573 14.34218002362532
IRIDIUM 130             
1 43073U 17083D   24328.19772765  .00000563  00000+0  19390-3 0  9997
2 43073  86.4019 200.8426 0002065  79.2060 280.9368 14.34221881362276
IRIDIUM 151             
1 43074U 17083E   24329.21889353  .00000582  00000+0  20066-3 0  9997
2 43074  86.4011 200.2418 0001868  87.2553 272.8857 14.34220958362446
IRIDIUM 134             
1 43075U 17083F   24328.62901737  .00000125  00000+0  37753-4 0  9998
2 43075  86.4013 200.4883 0001917  81.5928 278.5485 14.34218277362323
IRIDIUM 137             
1 43076U 17083G   24329.06031207  .00000409  00000+0  13882-3 0  9995
2 43076  86.4014 200.3894 0001513  94.8521 265.2847 14.34218056362458
IRIDIUM 141             
1 43077U 17083H   24329.05397234  .00000508  00000+0  17449-3 0  9993
2 43077  86.4015 200.2537 0002183  81.8413 278.3030 14.34220166362457
IRIDIUM 153             
1 43078U 17083J   24329.49453058 -.00000124  00000+0 -51410-4 0  9992
2 43078  86.4001 168.6007 0002538  94.4360 265.7126 14.34216379363624
IRIDIUM 131             
1 43079U 17083K   24328.62267336  .00000529  00000+0  18189-3 0  9991
2 43079  86.4017 200.5824 0002150  87.7934 272.3507 14.34220304362323
